GLOBALSTAR M075 [+]     
1 37192U 10054E   24090.24762102 -.00000114  00000+0 -56558-4 0  9991
2 37192  51.9932  93.2348 0000380  72.1733 300.1607 12.62272036620316
GLOBALSTAR M073 [+]     
1 37193U 10054F   24090.20170583 -.00000082  00000+0  12185-3 0  9994
2 37193  52.0090   6.8544 0000712  79.9222  84.3983 12.62262876621814
GLOBALSTAR M091 [+]     
1 37741U 11033C   24090.04470714 -.00000067  00000+0  20714-3 0  9992
2 37741  51.9988 185.2961 0000409  81.7874  89.8937 12.62261096587351
GLOBALSTAR M085 [+]     
1 37742U 11033D   24089.92726615 -.00000087  00000+0  91300-4 0  9994
2 37742  51.9850 137.0869 0000312  72.1729 344.7173 12.62269264587594
GLOBALSTAR M089 [+]     
1 37744U 11033F   24090.23662729 -.00000076  00000+0  15705-3 0  9999
2 37744  51.9918  92.9674 0000651 108.6610 334.3220 12.62261600588870
